STARLINK-31110          
1 58679U 23211N   26068.40918754  .00000109  00000+0  13471-4 0  9993
2 58679  42.9986  86.6941 0001453 282.2716  77.7973 15.27582049122424
ION SCV-017             
1 63230U 25052W   26068.71648816  .00006457  00000+0  24539-3 0  9998
2 63230  97.4016 324.7516 0023746  44.9875 315.3282 15.26881798 54851
